NORAD_CAT_ID,OBJECT_NAME,OBJECT_TYPE,EPOCH,MEAN_MOTION,ECCENTRICITY,INCLINATION,RA_OF_ASC_NODE,ARG_OF_PERICENTER,MEAN_ANOMALY,BSTAR,MEAN_MOTION_DOT,MEAN_MOTION_DDOT,TLE_LINE0,TLE_LINE1,TLE_LINE2,SEMIMAJOR_AXIS,PERIOD,APOGEE,PERIGEE,DECAYED
53837.0,STARLINK-4776,PAYLOAD,2024-01-06 17:13:11,15.0883707,0.0001514,53.2159,263.6224,103.7182,256.3978,4.9692e-06,-2.09e-06,0.0,0 STARLINK-4776,1 53837U 22114V   24006.71749578 -.00000209  00000-0  49692-5 0  9993,2 53837  53.2159 263.6224 0001514 103.7182 256.3978 15.08837070 72582,6917.889,95.438,540.802,538.707,0.0
53837.0,STARLINK-4776,PAYLOAD,2024-01-06 21:59:21,15.08838219,0.000154,53.2162,262.7302,96.7528,263.3639,-1.0563e-05,-4.56e-06,0.0,0 STARLINK-4776,1 53837U 22114V   24006.91621616 -.00000456  00000-0 -10563-4 0  9996,2 53837  53.2162 262.7302 0001540  96.7528 263.3639 15.08838219 73159,6917.886,95.438,540.816,538.685,0.0
53837.0,STARLINK-4776,PAYLOAD,2024-01-07 02:45:30,15.08836689,0.0001519,53.2162,261.8379,99.9616,260.1548,3.1611e-05,2.15e-06,0.0,0 STARLINK-4776,1 53837U 22114V   24007.11493570  .00000215  00000-0  31611-4 0  9993,2 53837  53.2162 261.8379 0001519  99.9616 260.1548 15.08836689 73188,6917.891,95.438,540.806,538.705,0.0
53837.0,STARLINK-4776,PAYLOAD,2024-01-07 20:14:44,15.08840635,0.0001527,53.216,258.5667,97.0672,263.0494,1.3907e-05,-6.7e-07,0.0,0 STARLINK-4776,1 53837U 22114V   24007.84357518 -.00000067  00000-0  13907-4 0  9998,2 53837  53.2160 258.5667 0001527  97.0672 263.0494 15.08840635 72759,6917.878,95.438,540.8,538.687,0.0
53837.0,STARLINK-4776,PAYLOAD,2024-01-07 21:50:07,15.08841273,0.0001533,53.2161,258.2694,95.9905,264.1262,1.7866e-05,-4e-08,0.0,0 STARLINK-4776,1 53837U 22114V   24007.90981445 -.00000004  00000-0  17866-4 0  9996,2 53837  53.2161 258.2694 0001533  95.9905 264.1262 15.08841273 73306,6917.876,95.437,540.802,538.681,0.0
53837.0,STARLINK-4776,PAYLOAD,2024-01-07 23:25:31,15.08841624,0.0001534,53.2161,257.9721,95.8095,264.3072,2.0388e-05,3.7e-07,0.0,0 STARLINK-4776,1 53837U 22114V   24007.97605408  .00000037  00000-0  20388-4 0  9993,2 53837  53.2161 257.9721 0001534  95.8095 264.3072 15.08841624 73315,6917.875,95.437,540.802,538.679,0.0
53837.0,STARLINK-4776,PAYLOAD,2024-01-08 21:40:55,15.08837111,0.0001641,53.2171,253.8102,102.2261,257.8915,3.0936e-05,2.04e-06,0.0,0 STARLINK-4776,1 53837U 22114V   24008.90341830  .00000204  00000-0  30936-4 0  9999,2 53837  53.2171 253.8102 0001641 102.2261 257.8915 15.08837111 73455,6917.889,95.438,540.889,538.619,0.0
53837.0,STARLINK-4776,PAYLOAD,2024-01-09 02:27:04,15.08838406,0.0001568,53.2167,252.9167,101.1067,259.0101,2.8566e-05,1.67e-06,0.0,0 STARLINK-4776,1 53837U 22114V   24009.10213778  .00000167  00000-0  28566-4 0  9995,2 53837  53.2167 252.9167 0001568 101.1067 259.0101 15.08838406 72943,6917.885,95.438,540.835,538.666,0.0
53837.0,STARLINK-4776,PAYLOAD,2024-01-09 21:31:42,15.08839032,0.0001568,53.2169,249.3479,104.3191,255.7976,2.6156e-05,1.28e-06,0.0,0 STARLINK-4776,1 53837U 22114V   24009.89701879  .00000128  00000-0  26156-4 0  9995,2 53837  53.2169 249.3479 0001568 104.3191 255.7976 15.08839032 73607,6917.883,95.438,540.833,538.664,0.0
53837.0,STARLINK-4776,PAYLOAD,2024-01-10 16:36:20,15.08838712,0.000139,53.216,245.7805,94.5696,265.5455,2.484e-05,1.07e-06,0.0,0 STARLINK-4776,1 53837U 22114V   24010.69190112  .00000107  00000-0  24840-4 0  9992,2 53837  53.2160 245.7805 0001390  94.5696 265.5455 15.08838712 73182,6917.884,95.438,540.711,538.788,0.0
53837.0,STARLINK-4776,PAYLOAD,2024-01-11 14:51:44,15.08839504,0.0001343,53.2158,241.6177,93.0542,267.0604,5.8509e-05,6.43e-06,0.0,0 STARLINK-4776,1 53837U 22114V   24011.61925955  .00000643  00000-0  58509-4 0  9990,2 53837  53.2158 241.6177 0001343  93.0542 267.0604 15.08839504 73866,6917.882,95.438,540.676,538.818,0.0
53837.0,STARLINK-4776,PAYLOAD,2024-01-11 19:37:53,15.08841866,0.0001363,53.2159,240.7256,92.1803,267.9346,8.6424e-05,1.088e-05,0.0,0 STARLINK-4776,1 53837U 22114V   24011.81797719  .00001088  00000-0  86424-4 0  9998,2 53837  53.2159 240.7256 0001363  92.1803 267.9346 15.08841866 73357,6917.875,95.437,540.683,538.797,0.0
53837.0,STARLINK-4776,PAYLOAD,2024-01-11 21:13:16,15.08843218,0.0001377,53.2157,240.428,92.2113,267.9037,9.8069e-05,1.273e-05,0.0,0 STARLINK-4776,1 53837U 22114V   24011.88421602  .00001273  00000-0  98069-4 0  9994,2 53837  53.2157 240.4280 0001377  92.2113 267.9037 15.08843218 73900,6917.871,95.437,540.688,538.783,0.0
53837.0,STARLINK-4776,PAYLOAD,2024-01-12 14:42:31,15.08835296,0.0001583,53.2159,237.1571,84.6962,275.4211,-1.5397e-05,-5.33e-06,0.0,0 STARLINK-4776,1 53837U 22114V   24012.61286717 -.00000533  00000-0 -15397-4 0  9995,2 53837  53.2159 237.1571 0001583  84.6962 275.4211 15.08835296 74012,6917.895,95.438,540.855,538.665,0.0
53837.0,STARLINK-4776,PAYLOAD,2024-01-12 19:28:41,15.08834817,0.0001673,53.2154,236.2646,93.9269,266.1914,-2.3982e-05,-6.7e-06,0.0,0 STARLINK-4776,1 53837U 22114V   24012.81158763 -.00000670  00000-0 -23982-4 0  9997,2 53837  53.2154 236.2646 0001673  93.9269 266.1914 15.08834817 73501,6917.896,95.438,540.919,538.604,0.0
53837.0,STARLINK-4776,PAYLOAD,2024-01-12 21:04:04,15.08834938,0.0001579,53.2157,235.9672,96.0166,264.1006,-2.5958e-05,-7.01e-06,0.0,0 STARLINK-4776,1 53837U 22114V   24012.87782741 -.00000701  00000-0 -25958-4 0  9992,2 53837  53.2157 235.9672 0001579  96.0166 264.1006 15.08834938 74059,6917.896,95.438,540.853,538.669,0.0
53837.0,STARLINK-4776,PAYLOAD,2024-01-13 00:14:50,15.08835636,0.0001438,53.2155,235.3725,90.8869,269.2287,-1.426e-05,-5.15e-06,0.0,0 STARLINK-4776,1 53837U 22114V   24013.01030722 -.00000515  00000-0 -14260-4 0  9991,2 53837  53.2155 235.3725 0001438  90.8869 269.2287 15.08835636 74071,6917.894,95.438,540.754,538.764,0.0
53837.0,STARLINK-4776,PAYLOAD,2024-01-13 19:19:27,15.0884745,0.0001444,53.2162,231.8049,80.1383,279.9772,7.0179e-05,8.29e-06,0.0,0 STARLINK-4776,1 53837U 22114V   24013.80517866  .00000829  00000-0  70179-4 0  9994,2 53837  53.2162 231.8049 0001444  80.1383 279.9772 15.08847450 73656,6917.858,95.437,540.722,538.724,0.0
53837.0,STARLINK-4776,PAYLOAD,2024-01-14 14:24:05,15.08838113,0.0001561,53.2168,228.2356,80.6374,279.4794,0.00013815,1.911e-05,0.0,0 STARLINK-4776,1 53837U 22114V   24014.60006366  .00001911  00000-0  13815-3 0  9997,2 53837  53.2168 228.2356 0001561  80.6374 279.4794 15.08838113 74317,6917.886,95.438,540.831,538.671,0.0
53837.0,STARLINK-4776,PAYLOAD,2024-01-14 19:10:14,15.08840993,0.0001358,53.2168,227.3423,86.6679,273.4468,0.00010262,1.346e-05,0.0,0 STARLINK-4776,1 53837U 22114V   24014.79878206  .00001346  00000-0  10262-3 0  9992,2 53837  53.2168 227.3423 0001358  86.6679 273.4468 15.08840993 73804,6917.877,95.437,540.682,538.803,0.0
53837.0,STARLINK-4776,PAYLOAD,2024-01-14 20:45:37,15.08841021,0.0001429,53.217,227.0459,80.2177,279.8976,0.00010273,1.347e-05,0.0,0 STARLINK-4776,1 53837U 22114V   24014.86502261  .00001347  00000-0  10273-3 0  9998,2 53837  53.2170 227.0459 0001429  80.2177 279.8976 15.08841021 74353,6917.877,95.437,540.731,538.754,0.0
53837.0,STARLINK-4776,PAYLOAD,2024-01-15 14:14:52,15.08845336,0.0001383,53.2152,223.7733,98.5951,261.5198,-3.5409e-05,-8.52e-06,0.0,0 STARLINK-4776,1 53837U 22114V   24015.59366302 -.00000852  00000-0 -35409-4 0  9994,2 53837  53.2152 223.7733 0001383  98.5951 261.5198 15.08845336 74461,6917.864,95.437,540.686,538.772,0.0
53837.0,STARLINK-4776,PAYLOAD,2024-01-15 19:01:01,15.08846158,0.0001373,53.2153,222.8809,102.9849,257.1297,-1.4878e-05,-5.25e-06,0.0,0 STARLINK-4776,1 53837U 22114V   24015.79238063 -.00000525  00000-0 -14878-4 0  9992,2 53837  53.2153 222.8809 0001373 102.9849 257.1297 15.08846158 74498,6917.862,95.437,540.676,538.777,0.0
53837.0,STARLINK-4776,PAYLOAD,2024-01-15 23:47:11,15.08845907,0.0001424,53.2153,221.9891,103.2516,256.8635,-1.7295e-05,-5.63e-06,0.0,0 STARLINK-4776,1 53837U 22114V   24015.99110004 -.00000563  00000-0 -17295-4 0  9996,2 53837  53.2153 221.9891 0001424 103.2516 256.8635 15.08845907 73987,6917.862,95.437,540.712,538.742,0.0
53837.0,STARLINK-4776,PAYLOAD,2024-01-16 12:30:16,15.0883447,0.0001469,53.2165,219.6132,94.4328,265.6832,3.4205e-05,2.56e-06,0.0,0 STARLINK-4776,1 53837U 22114V   24016.52102674  .00000256  00000-0  34205-4 0  9997,2 53837  53.2165 219.6132 0001469  94.4328 265.6832 15.08834470 74063,6917.897,95.438,540.779,538.746,0.0
53837.0,STARLINK-4776,PAYLOAD,2024-01-16 18:51:48,15.08851211,0.0001492,53.2165,218.4243,97.9153,262.2009,-0.00019845,-3.446e-05,0.0,0 STARLINK-4776,1 53837U 22114V   24016.78598320 -.00003446  00000-0 -19845-3 0  9990,2 53837  53.2165 218.4243 0001492  97.9153 262.2009 15.08851211 74109,6917.846,95.437,540.743,538.679,0.0
53837.0,STARLINK-4776,PAYLOAD,2024-01-16 22:02:34,15.08860566,0.0001415,53.2168,217.8295,96.5238,263.5915,-0.00029932,-5.051e-05,0.0,0 STARLINK-4776,1 53837U 22114V   24016.91845903 -.00005051  00000-0 -29932-3 0  9999,2 53837  53.2168 217.8295 0001415  96.5238 263.5915 15.08860566 74660,6917.818,95.436,540.661,538.704,0.0
53837.0,STARLINK-4776,PAYLOAD,2024-01-16 23:37:58,15.08848342,0.0001602,53.2161,217.5315,96.7502,263.3673,-9.8627e-05,-1.858e-05,0.0,0 STARLINK-4776,1 53837U 22114V   24016.98470134 -.00001858  00000-0 -98627-4 0  9995,2 53837  53.2161 217.5315 0001602  96.7502 263.3673 15.08848342 74675,6917.855,95.437,540.828,538.612,0.0
53837.0,STARLINK-4776,PAYLOAD,2024-01-17 20:17:57,15.08858222,0.0001388,53.2162,213.6662,94.1897,265.9254,0.0001886,2.716e-05,0.0,0 STARLINK-4776,1 53837U 22114V   24017.84580968  .00002716  00000-0  18860-3 0  9990,2 53837  53.2162 213.6662 0001388  94.1897 265.9254 15.08858222 74264,6917.825,95.436,540.65,538.729,0.0
53837.0,STARLINK-4776,PAYLOAD,2024-01-18 12:11:50,15.08838866,0.0001438,53.2157,210.6918,107.0512,253.0638,9.0451e-05,1.152e-05,0.0,0 STARLINK-4776,1 53837U 22114V   24018.50822229  .00001152  00000-0  90451-4 0  9993,2 53837  53.2157 210.6918 0001438 107.0512 253.0638 15.08838866 74360,6917.884,95.438,540.744,538.754,0.0
